[
    {
        "Altitude(m)": 713937.9518280716,
        "Argument of Periapsis(deg)": 0.010251109067964361,
        "Eccentricity": 0.0,
        "Inclination(deg)": 45.0,
        "Latitude(deg)": -35.604187472522824,
        "Longitude(deg)": 113.89235368885687,
        "Mean Anomaly(deg)": -55.074605017267174,
        "RAAN(deg)": 259.99032325268763,
        "Satellite Name": "Constellation 1 1162",
        "Satellite Number": 1162,
        "Semi-Major Axis(m)": 7083131.272910544,
        "Time(s)": 171
    },
    {
        "Altitude(m)": 713925.6442188863,
        "Argument of Periapsis(deg)": 0.010311057074209765,
        "Eccentricity": 0.0,
        "Inclination(deg)": 45.0,
        "Latitude(deg)": -35.573999069758166,
        "Longitude(deg)": 113.95276333618791,
        "Mean Anomaly(deg)": -55.01390387701734,
        "RAAN(deg)": 259.99026666352205,
        "Satellite Name": "Constellation 1 1162",
        "Satellite Number": 1162,
        "Semi-Major Axis(m)": 7083131.272910544,
        "Time(s)": 172
    },
    {
        "Altitude(m)": 713913.3246344331,
        "Argument of Periapsis(deg)": 0.010371005080455171,
        "Eccentricity": 0.0,
        "Inclination(deg)": 45.0,
        "Latitude(deg)": -35.54377596570578,
        "Longitude(deg)": 114.01312471204324,
        "Mean Anomaly(deg)": -54.95320273676748,
        "RAAN(deg)": 259.9902100743565,
        "Satellite Name": "Constellation 1 1162",
        "Satellite Number": 1162,
        "Semi-Major Axis(m)": 7083131.272910544,
        "Time(s)": 173
    },
    {
        "Altitude(m)": 713900.9931190049,
        "Argument of Periapsis(deg)": 0.010430953086700577,
        "Eccentricity": 0.0,
        "Inclination(deg)": 45.0,
        "Latitude(deg)": -35.51351822383396,
        "Longitude(deg)": 114.07343785130763,
        "Mean Anomaly(deg)": -54.89250159651747,
        "RAAN(deg)": 259.9901534851909,
        "Satellite Name": "Constellation 1 1162",
        "Satellite Number": 1162,
        "Semi-Major Axis(m)": 7083131.272910544,
        "Time(s)": 174
    },
    {
        "Altitude(m)": 713888.6497169326,
        "Argument of Periapsis(deg)": 0.010490901092945983,
        "Eccentricity": 0.0,
        "Inclination(deg)": 45.0,
        "Latitude(deg)": -35.48322590755202,
        "Longitude(deg)": 114.13370278908667,
        "Mean Anomaly(deg)": -54.831800456267736,
        "RAAN(deg)": 259.9900968960253,
        "Satellite Name": "Constellation 1 1162",
        "Satellite Number": 1162,
        "Semi-Major Axis(m)": 7083131.272910544,
        "Time(s)": 175
    },
    {
        "Altitude(m)": 713876.2944725789,
        "Argument of Periapsis(deg)": 0.010550849099191389,
        "Eccentricity": 0.0,
        "Inclination(deg)": 45.0,
        "Latitude(deg)": -35.452899080208994,
        "Longitude(deg)": 114.19391956070672,
        "Mean Anomaly(deg)": -54.771099316017775,
        "RAAN(deg)": 259.9900403068598,
        "Satellite Name": "Constellation 1 1162",
        "Satellite Number": 1162,
        "Semi-Major Axis(m)": 7083131.272910544,
        "Time(s)": 176
    },
    {
        "Altitude(m)": 713863.9274303598,
        "Argument of Periapsis(deg)": 0.010610797105436795,
        "Eccentricity": 0.0,
        "Inclination(deg)": 45.0,
        "Latitude(deg)": -35.4225378050946,
        "Longitude(deg)": 114.25408820171278,
        "Mean Anomaly(deg)": -54.71039817576784,
        "RAAN(deg)": 259.9899837176942,
        "Satellite Name": "Constellation 1 1162",
        "Satellite Number": 1162,
        "Semi-Major Axis(m)": 7083131.272910544,
        "Time(s)": 177
    },
    {
        "Altitude(m)": 713851.5486347108,
        "Argument of Periapsis(deg)": 0.0106707451116822,
        "Eccentricity": 0.0,
        "Inclination(deg)": 45.0,
        "Latitude(deg)": -35.392142145438235,
        "Longitude(deg)": 114.31420857977054,
        "Mean Anomaly(deg)": -54.649697035517875,
        "RAAN(deg)": 259.9899271285287,
        "Satellite Name": "Constellation 1 1162",
        "Satellite Number": 1162,
        "Semi-Major Axis(m)": 7083131.272910544,
        "Time(s)": 178
    },
    {
        "Altitude(m)": 713839.1581301119,
        "Argument of Periapsis(deg)": 0.010730693117927606,
        "Eccentricity": 0.0,
        "Inclination(deg)": 45.0,
        "Latitude(deg)": -35.36171216440944,
        "Longitude(deg)": 114.37428106705269,
        "Mean Anomaly(deg)": -54.588995895268084,
        "RAAN(deg)": 259.98987053936304,
        "Satellite Name": "Constellation 1 1162",
        "Satellite Number": 1162,
        "Semi-Major Axis(m)": 7083131.272910544,
        "Time(s)": 179
    },
    {
        "Altitude(m)": 713826.755961082,
        "Argument of Periapsis(deg)": 0.01079064112417301,
        "Eccentricity": 0.0,
        "Inclination(deg)": 45.0,
        "Latitude(deg)": -35.33124792511676,
        "Longitude(deg)": 114.43430553165707,
        "Mean Anomaly(deg)": -54.52829475501812,
        "RAAN(deg)": 259.98981395019746,
        "Satellite Name": "Constellation 1 1162",
        "Satellite Number": 1162,
        "Semi-Major Axis(m)": 7083131.272910544,
        "Time(s)": 180
    },
    {
        "Altitude(m)": 713814.3421721745,
        "Argument of Periapsis(deg)": 0.010850589130418416,
        "Eccentricity": 0.0,
        "Inclination(deg)": 45.0,
        "Latitude(deg)": -35.300749490608496,
        "Longitude(deg)": 114.49428200999165,
        "Mean Anomaly(deg)": -54.46759361476819,
        "RAAN(deg)": 259.98975736103193,
        "Satellite Name": "Constellation 1 1162",
        "Satellite Number": 1162,
        "Semi-Major Axis(m)": 7083131.272910544,
        "Time(s)": 181
    },
    {
        "Altitude(m)": 713801.91680798,
        "Argument of Periapsis(deg)": 0.01091053713666382,
        "Eccentricity": 0.0,
        "Inclination(deg)": 45.0,
        "Latitude(deg)": -35.27021692387208,
        "Longitude(deg)": 114.55421053867711,
        "Mean Anomaly(deg)": -54.40689247451843,
        "RAAN(deg)": 259.98970077186635,
        "Satellite Name": "Constellation 1 1162",
        "Satellite Number": 1162,
        "Semi-Major Axis(m)": 7083131.272910544,
        "Time(s)": 182
    },
    {
        "Altitude(m)": 713789.4799131249,
        "Argument of Periapsis(deg)": 0.010970485142909228,
        "Eccentricity": 0.0,
        "Inclination(deg)": 45.0,
        "Latitude(deg)": -35.239650287833605,
        "Longitude(deg)": 114.61409115454622,
        "Mean Anomaly(deg)": -54.34619133426847,
        "RAAN(deg)": 259.98964418270083,
        "Satellite Name": "Constellation 1 1162",
        "Satellite Number": 1162,
        "Semi-Major Axis(m)": 7083131.272910544,
        "Time(s)": 183
    },
    {
        "Altitude(m)": 713777.031532272,
        "Argument of Periapsis(deg)": 0.011030433149154634,
        "Eccentricity": 0.0,
        "Inclination(deg)": 45.0,
        "Latitude(deg)": -35.209049645358206,
        "Longitude(deg)": 114.67392389464126,
        "Mean Anomaly(deg)": -54.28549019401847,
        "RAAN(deg)": 259.9895875935352,
        "Satellite Name": "Constellation 1 1162",
        "Satellite Number": 1162,
        "Semi-Major Axis(m)": 7083131.272910544,
        "Time(s)": 184
    },
    {
        "Altitude(m)": 713764.5717101225,
        "Argument of Periapsis(deg)": 0.01109038115540004,
        "Eccentricity": 0.0,
        "Inclination(deg)": 45.0,
        "Latitude(deg)": -35.178415059249616,
        "Longitude(deg)": 114.73370862811693,
        "Mean Anomaly(deg)": -54.22478905376862,
        "RAAN(deg)": 259.9895310043696,
        "Satellite Name": "Constellation 1 1162",
        "Satellite Number": 1162,
        "Semi-Major Axis(m)": 7083131.272910544,
        "Time(s)": 185
    },
    {
        "Altitude(m)": 713752.1004914102,
        "Argument of Periapsis(deg)": 0.011150329161645444,
        "Eccentricity": 0.0,
        "Inclination(deg)": 45.0,
        "Latitude(deg)": -35.14774659224998,
        "Longitude(deg)": 114.7934457286261,
        "Mean Anomaly(deg)": -54.16408791351878,
        "RAAN(deg)": 259.9894744152041,
        "Satellite Name": "Constellation 1 1162",
        "Satellite Number": 1162,
        "Semi-Major Axis(m)": 7083131.272910544,
        "Time(s)": 186
    },
    {
        "Altitude(m)": 713739.6179209083,
        "Argument of Periapsis(deg)": 0.01121027716789085,
        "Eccentricity": 0.0,
        "Inclination(deg)": 45.0,
        "Latitude(deg)": -35.11704430703941,
        "Longitude(deg)": 114.8531350657379,
        "Mean Anomaly(deg)": -54.10338677326882,
        "RAAN(deg)": 259.9894178260385,
        "Satellite Name": "Constellation 1 1162",
        "Satellite Number": 1162,
        "Semi-Major Axis(m)": 7083131.272910544,
        "Time(s)": 187
    },
    {
        "Altitude(m)": 713727.124043422,
        "Argument of Periapsis(deg)": 0.011270225174136258,
        "Eccentricity": 0.0,
        "Inclination(deg)": 45.0,
        "Latitude(deg)": -35.08630826623628,
        "Longitude(deg)": 114.91277667732327,
        "Mean Anomaly(deg)": -54.042685633018884,
        "RAAN(deg)": 259.989361236873,
        "Satellite Name": "Constellation 1 1162",
        "Satellite Number": 1162,
        "Semi-Major Axis(m)": 7083131.272910544,
        "Time(s)": 188
    },
    {
        "Altitude(m)": 713714.6189037912,
        "Argument of Periapsis(deg)": 0.011330173180381662,
        "Eccentricity": 0.0,
        "Inclination(deg)": 45.0,
        "Latitude(deg)": -35.05553853239678,
        "Longitude(deg)": 114.97237060145717,
        "Mean Anomaly(deg)": -53.98198449276902,
        "RAAN(deg)": 259.9893046477074,
        "Satellite Name": "Constellation 1 1162",
        "Satellite Number": 1162,
        "Semi-Major Axis(m)": 7083131.272910544,
        "Time(s)": 189
    }
]